NORAD_CAT_ID,OBJECT_NAME,OBJECT_TYPE,EPOCH,MEAN_MOTION,ECCENTRICITY,INCLINATION,RA_OF_ASC_NODE,ARG_OF_PERICENTER,MEAN_ANOMALY,BSTAR,MEAN_MOTION_DOT,MEAN_MOTION_DDOT,TLE_LINE0,TLE_LINE1,TLE_LINE2,SEMIMAJOR_AXIS,PERIOD,APOGEE,PERIGEE,DECAYED
52675.0,STARLINK-3934,PAYLOAD,2023-12-28 15:57:11,15.08839087,0.000124,53.2159,144.5497,94.8409,265.2724,6.0264e-05,6.71e-06,0.0,0 STARLINK-3934,1 52675U 22053V   23362.66471667  .00000671  00000-0  60264-4 0  9992,2 52675  53.2159 144.5497 0001240  94.8409 265.2724 15.08839087 90092,6917.883,95.438,540.606,538.89,0.0
52675.0,STARLINK-3934,PAYLOAD,2023-12-29 14:12:35,15.08837429,0.0001117,53.2164,140.3881,88.3131,271.7989,6.5781e-05,7.59e-06,0.0,0 STARLINK-3934,1 52675U 22053V   23363.59207774  .00000759  00000-0  65781-4 0  9997,2 52675  53.2164 140.3881 0001117  88.3131 271.7989 15.08837429 90231,6917.888,95.438,540.526,538.981,0.0
52675.0,STARLINK-3934,PAYLOAD,2023-12-29 15:47:58,15.0883656,0.0001226,53.2162,140.0912,80.1587,279.9543,8.919e-05,1.132e-05,0.0,0 STARLINK-3934,1 52675U 22053V   23363.65831813  .00001132  00000-0  89190-4 0  9997,2 52675  53.2162 140.0912 0001226  80.1587 279.9543 15.08836560 89810,6917.891,95.438,540.604,538.908,0.0
52675.0,STARLINK-3934,PAYLOAD,2023-12-30 14:03:22,15.08836455,0.0001355,53.2164,135.9284,85.9081,274.2066,3.0659e-05,2e-06,0.0,0 STARLINK-3934,1 52675U 22053V   23364.58568149  .00000200  00000-0  30659-4 0  9990,2 52675  53.2164 135.9284 0001355  85.9081 274.2066 15.08836455 90387,6917.891,95.438,540.694,538.819,0.0
52675.0,STARLINK-3934,PAYLOAD,2023-12-30 15:38:45,15.08837948,0.0001391,53.2167,135.631,89.8745,270.2406,4.0904e-05,3.63e-06,0.0,0 STARLINK-3934,1 52675U 22053V   23364.65192020  .00000363  00000-0  40904-4 0  9993,2 52675  53.2167 135.6310 0001391  89.8745 270.2406 15.08837948 90390,6917.887,95.438,540.714,538.789,0.0
52675.0,STARLINK-3934,PAYLOAD,2023-12-31 12:18:47,15.0882132,0.0001172,53.2168,131.765,95.1786,264.934,-0.00013391,-2.417e-05,0.0,0 STARLINK-3934,1 52675U 22053V   23365.51304510 -.00002417  00000-0 -13391-3 0  9991,2 52675  53.2168 131.7650 0001172  95.1786 264.9340 15.08821320 90098,6917.937,95.439,540.613,538.992,0.0
52675.0,STARLINK-3934,PAYLOAD,2023-12-31 13:54:10,15.08822555,0.0001264,53.2166,131.4673,99.2096,260.9039,-0.00012596,-2.291e-05,0.0,0 STARLINK-3934,1 52675U 22053V   23365.57928423 -.00002291  00000-0 -12596-3 0  9998,2 52675  53.2166 131.4673 0001264  99.2096 260.9039 15.08822555 90530,6917.934,95.439,540.673,538.924,0.0
52675.0,STARLINK-3934,PAYLOAD,2024-01-01 12:09:34,15.08829471,0.0001179,53.2163,127.3018,97.7717,262.3409,-6.4484e-05,-1.314e-05,0.0,0 STARLINK-3934,1 52675U 22053V   24001.50664442 -.00001314  00000-0 -64484-4 0  9996,2 52675  53.2163 127.3018 0001179  97.7717 262.3409 15.08829471 90241,6917.913,95.438,540.593,538.962,0.0
52675.0,STARLINK-3934,PAYLOAD,2024-01-01 13:44:57,15.08830774,0.0001217,53.2173,127.0068,98.367,261.746,-3.7942e-05,-8.91e-06,0.0,0 STARLINK-3934,1 52675U 22053V   24001.57288306 -.00000891  00000-0 -37942-4 0  9992,2 52675  53.2173 127.0068 0001217  98.3670 261.7460 15.08830774 90688,6917.909,95.438,540.615,538.932,0.0
52675.0,STARLINK-3934,PAYLOAD,2024-01-02 12:00:20,15.08824398,0.0001132,53.2175,122.8442,99.3215,260.7905,0.00017958,2.57e-05,0.0,0 STARLINK-3934,1 52675U 22053V   24002.50024162  .00002570  00000-0  17958-3 0  9992,2 52675  53.2175 122.8442 0001132  99.3215 260.7905 15.08824398 90397,6917.928,95.439,540.576,539.01,0.0
52675.0,STARLINK-3934,PAYLOAD,2024-01-02 13:35:43,15.08825675,0.0001146,53.2169,122.5462,98.7433,261.3689,0.00019165,2.762e-05,0.0,0 STARLINK-3934,1 52675U 22053V   24002.56648132  .00002762  00000-0  19165-3 0  9992,2 52675  53.2169 122.5462 0001146  98.7433 261.3689 15.08825675 90833,6917.924,95.438,540.582,538.996,0.0
52675.0,STARLINK-3934,PAYLOAD,2024-01-03 13:26:31,15.08831531,0.0001217,53.2159,118.0841,104.3937,255.719,7.2057e-05,8.59e-06,0.0,0 STARLINK-3934,1 52675U 22053V   24003.56008964  .00000859  00000-0  72057-4 0  9991,2 52675  53.2159 118.0841 0001217 104.3937 255.7190 15.08831531 90983,6917.906,95.438,540.613,538.929,0.0
52675.0,STARLINK-3934,PAYLOAD,2024-01-03 15:01:54,15.08835102,0.0001246,53.2164,117.7869,91.1607,268.9528,6.4244e-05,7.35e-06,0.0,0 STARLINK-3934,1 52675U 22053V   24003.62632904  .00000735  00000-0  64244-4 0  9997,2 52675  53.2164 117.7869 0001246  91.1607 268.9528 15.08835102 90567,6917.895,95.438,540.622,538.898,0.0
52675.0,STARLINK-3934,PAYLOAD,2024-01-04 13:17:18,15.08842157,0.00011,53.2158,113.6253,76.0636,284.0479,4.3965e-05,4.12e-06,0.0,0 STARLINK-3934,1 52675U 22053V   24004.55368786  .00000412  00000-0  43965-4 0  9993,2 52675  53.2158 113.6253 0001100  76.0636 284.0479 15.08842157 91131,6917.874,95.437,540.5,538.978,0.0
52675.0,STARLINK-3934,PAYLOAD,2024-01-04 14:52:41,15.0884623,0.0001196,53.2167,113.3268,73.77,286.3424,8.5928e-05,1.08e-05,0.0,0 STARLINK-3934,1 52675U 22053V   24004.61992448  .00001080  00000-0  85928-4 0  9995,2 52675  53.2167 113.3268 0001196  73.7700 286.3424 15.08846230 90719,6917.861,95.437,540.554,538.899,0.0
52675.0,STARLINK-3934,PAYLOAD,2024-01-05 11:32:43,15.08834619,0.0001173,53.2164,109.4627,72.0243,288.0877,6.5966e-05,7.62e-06,0.0,0 STARLINK-3934,1 52675U 22053V   24005.48105402  .00000762  00000-0  65966-4 0  9993,2 52675  53.2164 109.4627 0001173  72.0243 288.0877 15.08834619 90843,6917.897,95.438,540.573,538.95,0.0
52675.0,STARLINK-3934,PAYLOAD,2024-01-05 13:08:06,15.08837763,0.0001317,53.2162,109.1646,70.536,289.5774,6.3992e-05,7.31e-06,0.0,0 STARLINK-3934,1 52675U 22053V   24005.54729295  .00000731  00000-0  63992-4 0  9995,2 52675  53.2162 109.1646 0001317  70.5360 289.5774 15.08837763 91286,6917.887,95.438,540.663,538.841,0.0
52675.0,STARLINK-3934,PAYLOAD,2024-01-06 11:23:29,15.08844076,0.0001309,53.2166,105.0017,67.5156,292.5975,3.7555e-05,3.1e-06,0.0,0 STARLINK-3934,1 52675U 22053V   24006.47464997  .00000310  00000-0  37555-4 0  9992,2 52675  53.2166 105.0017 0001309  67.5156 292.5975 15.08844076 90996,6917.868,95.437,540.638,538.827,0.0
52675.0,STARLINK-3934,PAYLOAD,2024-01-06 16:09:38,15.08848956,0.0001295,53.2164,104.1087,73.9945,286.119,7.8734e-05,9.66e-06,0.0,0 STARLINK-3934,1 52675U 22053V   24006.67336491  .00000966  00000-0  78734-4 0  9992,2 52675  53.2164 104.1087 0001295  73.9945 286.1190 15.08848956 91453,6917.853,95.437,540.614,538.822,0.0
52675.0,STARLINK-3934,PAYLOAD,2024-01-07 11:14:15,15.08855565,0.0001547,53.2168,100.5401,65.2173,294.898,0.00014634,2.043e-05,0.0,0 STARLINK-3934,1 52675U 22053V   24007.46823507  .00002043  00000-0  14634-3 0  9995,2 52675  53.2168 100.5401 0001547  65.2173 294.8980 15.08855565 91574,6917.833,95.437,540.768,538.628,0.0
52675.0,STARLINK-3934,PAYLOAD,2024-01-08 11:05:02,15.08845585,0.0001454,53.2166,96.0786,117.2521,242.862,-2.4537e-05,-6.79e-06,0.0,0 STARLINK-3934,1 52675U 22053V   24008.46184002 -.00000679  00000-0 -24537-4 0  9995,2 52675  53.2166  96.0786 0001454 117.2521 242.8620 15.08845585 91293,6917.863,95.437,540.734,538.722,0.0
52675.0,STARLINK-3934,PAYLOAD,2024-01-09 10:55:50,15.08848826,0.0001448,53.218,91.623,114.3395,245.7748,-0.00027323,-4.635e-05,0.0,0 STARLINK-3934,1 52675U 22053V   24009.45544820 -.00004635  00000-0 -27323-3 0  9994,2 52675  53.2180  91.6230 0001448 114.3395 245.7748 15.08848826 91445,6917.853,95.437,540.72,538.717,0.0
52675.0,STARLINK-3934,PAYLOAD,2024-01-10 10:46:37,15.0883435,0.0001332,53.2173,87.161,104.4097,255.7043,0.00011945,1.613e-05,0.0,0 STARLINK-3934,1 52675U 22053V   24010.44904824  .00001613  00000-0  11945-3 0  9993,2 52675  53.2173  87.1610 0001332 104.4097 255.7043 15.08834350 92021,6917.898,95.438,540.684,538.841,0.0
52675.0,STARLINK-3934,PAYLOAD,2024-01-10 12:22:00,15.08840489,0.000125,53.2165,86.8629,96.89,263.2234,0.00013426,1.85e-05,0.0,0 STARLINK-3934,1 52675U 22053V   24010.51528504  .00001850  00000-0  13426-3 0  9997,2 52675  53.2165  86.8629 0001250  96.8900 263.2234 15.08840489 91603,6917.879,95.438,540.609,538.879,0.0
52675.0,STARLINK-3934,PAYLOAD,2024-01-10 23:29:43,15.08834981,0.0001289,53.2174,84.7833,78.6553,281.4584,0.00013468,1.856e-05,0.0,0 STARLINK-3934,1 52675U 22053V   24010.97897163  .00001856  00000-0  13468-3 0  9999,2 52675  53.2174  84.7833 0001289  78.6553 281.4584 15.08834981 91678,6917.896,95.438,540.652,538.869,0.0
52675.0,STARLINK-3934,PAYLOAD,2024-01-11 12:12:48,15.08840848,0.0001562,53.2168,82.4056,93.6671,266.45,0.00014879,2.081e-05,0.0,0 STARLINK-3934,1 52675U 22053V   24011.50889005  .00002081  00000-0  14879-3 0  9993,2 52675  53.2168  82.4056 0001562  93.6671 266.4500 15.08840848 92182,6917.878,95.438,540.823,538.662,0.0
52675.0,STARLINK-3934,PAYLOAD,2024-01-12 04:06:39,15.08839202,0.0001194,53.2179,79.4307,90.359,269.7539,4.5619e-05,4.38e-06,0.0,0 STARLINK-3934,1 52675U 22053V   24012.17129392  .00000438  00000-0  45619-4 0  9994,2 52675  53.2179  79.4307 0001194  90.3590 269.7539 15.08839202 91857,6917.883,95.438,540.574,538.922,0.0
52675.0,STARLINK-3934,PAYLOAD,2024-01-12 12:03:35,15.08838982,0.0001576,53.2164,77.943,70.2523,289.8639,4.7146e-05,4.62e-06,0.0,0 STARLINK-3934,1 52675U 22053V   24012.50249643  .00000462  00000-0  47146-4 0  9997,2 52675  53.2164  77.9430 0001576  70.2523 289.8639 15.08838982 92330,6917.884,95.438,540.839,538.658,0.0
52675.0,STARLINK-3934,PAYLOAD,2024-01-13 10:18:59,15.0883827,0.0001732,53.2174,73.7797,83.4753,276.6437,4.5669e-05,4.39e-06,0.0,0 STARLINK-3934,1 52675U 22053V   24013.42985838  .00000439  00000-0  45669-4 0  9994,2 52675  53.2174  73.7797 0001732  83.4753 276.6437 15.08838270 92044,6917.886,95.438,540.949,538.552,0.0
52675.0,STARLINK-3934,PAYLOAD,2024-01-14 10:09:46,15.08840043,0.0001617,53.217,69.3178,99.5471,260.5704,0.00014046,1.948e-05,0.0,0 STARLINK-3934,1 52675U 22053V   24014.42345570  .00001948  00000-0  14046-3 0  9998,2 52675  53.2170  69.3178 0001617  99.5471 260.5704 15.08840043 92625,6917.88,95.438,540.864,538.627,0.0
